[{"OBJECT_NAME":"STARLINK-35182","OBJECT_ID":"2025-198N","EPOCH":"2026-03-09T22:21:27.627264","MEAN_MOTION":15.3020278,"ECCENTRICITY":9.134e-5,"INCLINATION":53.1574,"RA_OF_ASC_NODE":270.1181,"ARG_OF_PERICENTER":124.5822,"MEAN_ANOMALY":235.5265,"EPHEMERIS_TYPE":0,"CLASSIFICATION_TYPE":"U","NORAD_CAT_ID":65504,"ELEMENT_SET_NO":999,"REV_AT_EPOCH":2865,"BSTAR":0.0010695464,"MEAN_MOTION_DOT":0.00031455,"MEAN_MOTION_DDOT":0},{"OBJECT_NAME":"SL-3 R\/B","OBJECT_ID":"1981-065B","EPOCH":"2026-03-09T21:58:16.284000","MEAN_MOTION":15.33300883,"ECCENTRICITY":0.00117648,"INCLINATION":97.6337,"RA_OF_ASC_NODE":111.1786,"ARG_OF_PERICENTER":10.529,"MEAN_ANOMALY":349.6196,"EPHEMERIS_TYPE":0,"CLASSIFICATION_TYPE":"U","NORAD_CAT_ID":12586,"ELEMENT_SET_NO":999,"REV_AT_EPOCH":43499,"BSTAR":0.00030084921,"MEAN_MOTION_DOT":9.62e-5,"MEAN_MOTION_DDOT":0}]
